EXPRESS-AT1             
1 39612U 14010A   14094.50107358 -.00000056  00000-0  00000+0 0   323
2 39612   0.0432  26.9567 0002053  90.2467 325.3419  1.00273747   362
EXPRESS-AT2             
1 39613U 14010B   14092.53784792 -.00000031  00000-0  00000+0 0   118
2 39613   0.0212  78.7394 0001823 215.0296 165.5249  0.99890196   177
BREEZE-M R/B            
1 39614U 14010C   14091.92863515 -.00000217  00000-0  00000+0 0   130
2 39614   0.1566 295.2680 0687999 111.0948 319.1025  0.90583358   166
BREEZE-M DEB [TANK]     
1 39615U 14010D   14094.46220350  .00000354  00000-0  13357-2 0    84
2 39615  48.6155 164.1600 7226601   4.5188 359.6650  2.27435953   377
AMAZONAS 4A             
1 39616U 14011A   14093.18011363 -.00000301  00000-0  00000+0 0   166
2 39616   0.0365 285.1457 0005069 183.6441  96.3719  1.00467461   183
ASTRA 5B                
1 39617U 14011B   14087.15327968 -.00000146  00000-0  00000+0 0   109
2 39617   0.3018 340.8566 1088666 176.3902 110.4717  1.17381008    94
ARIANE 5 R/B            
1 39618U 14011C   14093.01392196  .00004414  00000-0  16796-2 0   111
2 39618   3.3047 329.5903 7269192 191.7163 128.9212  2.28891846   251
ARIANE 5 DEB [SYLDA]    
1 39619U 14011D   14092.60551099  .00039567  00000-0  14929-1 0   106
2 39619   3.0113 335.0773 7265708 186.0679 152.2555  2.29258196   232
COSMOS 2491 [GLONASS-M] 
1 39620U 14012A   14094.24530152  .00000025  00000-0  00000+0 0   142
2 39620  64.8163 104.4338 0018753 336.9780 330.6300  2.13019543   275
FREGAT R/B              
1 39621U 14012B   14093.54874856  .00000000  00000-0  10000-3 0    66
2 39621  64.7598 104.3705 0077179 133.7454 226.9297  2.08927688   221
SOYUZ-TMA 12M           
1 39622U 14013A   14086.76074313  .00021020  00000-0  36079-3 0   221
2 39622  51.6495 143.1346 0003571   1.1015 102.8524 15.51116198   291
SJ-11-06                
1 39624U 14014A   14094.41240539  .00001051  00000-0  23311-3 0   171
2 39624  98.2572 148.3457 0011779 201.5999 158.4704 14.59105566   620
CZ-2C R/B               
1 39625U 14014B   14094.17817080  .00005910  00000-0  44715-3 0   131
2 39625  98.3308 148.4600 0148726  44.5395 316.7661 14.94296145   600
CZ-2C DEB               
1 39626U 14014C   14093.13244605 -.00003692  00000-0 -90992-3 0    83
2 39626  98.0432 146.9952 0113414 216.4526 142.8919 14.47777894   439
CZ-2C DEB               
1 39627U 14014D   14093.12144021  .00003689  00000-0  14708-2 0    88
2 39627  98.0774 146.8603 0187460 162.4456 198.3322 14.19935229   425
CZ-2C DEB               
1 39628U 14014E   14093.61614394  .00004640  00000-0  11685-2 0    87
2 39628  98.4864 147.5308 0113352 215.2191 144.1462 14.47833155   512
CZ-2C DEB               
1 39629U 14014F   14094.10457072  .00008713  00000-0  33972-2 0   102
2 39629  98.4916 147.8505 0182609 161.0736 199.7270 14.21165926   561
2014-015C               
1 39632U 14015C   14093.80418105  .00448573  00000-0  23650+0 0    30
2 39632  98.8511 109.3040 0003616 304.3723  55.7587 14.13943530    35
2014-015D               
1 39633U 14015D   14093.73342700  .00862149  00000-0  45613+0 0    32
2 39633  98.8532 109.2300 0004020 310.0944  50.0355 14.13756519    25
2014-016A               
1 39634U 14016A   14094.56471965 -.00000047  00000-0  00000+0 0    46
2 39634  98.1661 102.8074 0003051  67.8425 292.3001 14.61600894   108
2014-016B               
1 39635U 14017A   14094.62734748 -.00000138  00000-0  00000+0 0    36
2 39635  19.2638 314.2516 6040971 178.4432 184.3130  3.98971863    09
